{"fetched_at":"2026-07-08T17:59:48.661Z","source":"https://celestrak.org/NORAD/elements/gp.php?NAME=HAWK&FORMAT=JSON","constellation":"hawkeye-360","records":[{"OBJECT_NAME":"HAWK-A","OBJECT_ID":"2018-099H","EPOCH":"2026-07-08T09:56:14.674272","CLASSIFICATION_TYPE":"U","MEAN_MOTION":15.2490654,"ECCENTRICITY":0.0034008,"INCLINATION":97.3903,"RA_OF_ASC_NODE":241.3749,"ARG_OF_PERICENTER":208.0622,"MEAN_ANOMALY":151.8784,"EPHEMERIS_TYPE":0,"NORAD_CAT_ID":43765,"ELEMENT_SET_NO":999,"REV_AT_EPOCH":41633,"BSTAR":0.00019008,"MEAN_MOTION_DOT":0.00004733,"MEAN_MOTION_DDOT":0},{"OBJECT_NAME":"HAWK-B","OBJECT_ID":"2018-099AN","EPOCH":"2026-07-08T09:29:16.063584","CLASSIFICATION_TYPE":"U","MEAN_MOTION":15.2306313,"ECCENTRICITY":0.003077,"INCLINATION":97.3949,"RA_OF_ASC_NODE":240.7267,"ARG_OF_PERICENTER":226.5256,"MEAN_ANOMALY":133.3422,"EPHEMERIS_TYPE":0,"NORAD_CAT_ID":43794,"ELEMENT_SET_NO":999,"REV_AT_EPOCH":41626,"BSTAR":0.00014566,"MEAN_MOTION_DOT":0.00003403,"MEAN_MOTION_DDOT":0},{"OBJECT_NAME":"HAWK-C","OBJECT_ID":"2018-099AT","EPOCH":"2026-07-08T09:47:08.000736","CLASSIFICATION_TYPE":"U","MEAN_MOTION":15.28418083,"ECCENTRICITY":0.0039651,"INCLINATION":97.388,"RA_OF_ASC_NODE":242.3858,"ARG_OF_PERICENTER":207.9866,"MEAN_ANOMALY":151.9242,"EPHEMERIS_TYPE":0,"NORAD_CAT_ID":43799,"ELEMENT_SET_NO":999,"REV_AT_EPOCH":41715,"BSTAR":0.00017951,"MEAN_MOTION_DOT":0.00005004,"MEAN_MOTION_DDOT":0},{"OBJECT_NAME":"HAWK-2C","OBJECT_ID":"2021-006CT","EPOCH":"2026-07-08T01:56:23.267040","CLASSIFICATION_TYPE":"U","MEAN_MOTION":15.34927271,"ECCENTRICITY":0.0008506,"INCLINATION":97.227,"RA_OF_ASC_NODE":232.9754,"ARG_OF_PERICENTER":121.2853,"MEAN_ANOMALY":238.9225,"EPHEMERIS_TYPE":0,"NORAD_CAT_ID":47502,"ELEMENT_SET_NO":999,"REV_AT_EPOCH":30270,"BSTAR":0.00012147,"MEAN_MOTION_DOT":0.0000404,"MEAN_MOTION_DDOT":0},{"OBJECT_NAME":"HAWK-2A","OBJECT_ID":"2021-006CW","EPOCH":"2026-07-08T01:59:41.440128","CLASSIFICATION_TYPE":"U","MEAN_MOTION":15.3494141,"ECCENTRICITY":0.0007979,"INCLINATION":97.2311,"RA_OF_ASC_NODE":233.6677,"ARG_OF_PERICENTER":124.2191,"MEAN_ANOMALY":235.981,"EPHEMERIS_TYPE":0,"NORAD_CAT_ID":47505,"ELEMENT_SET_NO":999,"REV_AT_EPOCH":30270,"BSTAR":0.00012126,"MEAN_MOTION_DOT":0.00004034,"MEAN_MOTION_DDOT":0},{"OBJECT_NAME":"HAWK-2B","OBJECT_ID":"2021-006CZ","EPOCH":"2026-07-07T16:28:00.217632","CLASSIFICATION_TYPE":"U","MEAN_MOTION":15.35062896,"ECCENTRICITY":0.0008544,"INCLINATION":97.2181,"RA_OF_ASC_NODE":231.5774,"ARG_OF_PERICENTER":124.047,"MEAN_ANOMALY":236.1586,"EPHEMERIS_TYPE":0,"NORAD_CAT_ID":47508,"ELEMENT_SET_NO":999,"REV_AT_EPOCH":30264,"BSTAR":0.00015236,"MEAN_MOTION_DOT":0.0000511,"MEAN_MOTION_DDOT":0},{"OBJECT_NAME":"HAWK-3B","OBJECT_ID":"2021-059BE","EPOCH":"2026-07-08T13:00:48.565728","CLASSIFICATION_TYPE":"U","MEAN_MOTION":15.71414468,"ECCENTRICITY":0.0003906,"INCLINATION":97.6652,"RA_OF_ASC_NODE":28.2983,"ARG_OF_PERICENTER":224.4609,"MEAN_ANOMALY":135.634,"EPHEMERIS_TYPE":0,"NORAD_CAT_ID":48931,"ELEMENT_SET_NO":999,"REV_AT_EPOCH":28120,"BSTAR":0.00030419,"MEAN_MOTION_DOT":0.00038704,"MEAN_MOTION_DDOT":0},{"OBJECT_NAME":"HAWK-3C","OBJECT_ID":"2021-059BX","EPOCH":"2026-07-08T13:00:22.427136","CLASSIFICATION_TYPE":"U","MEAN_MOTION":15.71407356,"ECCENTRICITY":0.0004226,"INCLINATION":97.6771,"RA_OF_ASC_NODE":34.0207,"ARG_OF_PERICENTER":223.2923,"MEAN_ANOMALY":136.8007,"EPHEMERIS_TYPE":0,"NORAD_CAT_ID":48948,"ELEMENT_SET_NO":999,"REV_AT_EPOCH":28120,"BSTAR":0.00030651,"MEAN_MOTION_DOT":0.00038991,"MEAN_MOTION_DDOT":0},{"OBJECT_NAME":"HAWK-3A","OBJECT_ID":"2021-059CG","EPOCH":"2026-07-08T13:00:12.644064","CLASSIFICATION_TYPE":"U","MEAN_MOTION":15.71409877,"ECCENTRICITY":0.0004069,"INCLINATION":97.6713,"RA_OF_ASC_NODE":31.2077,"ARG_OF_PERICENTER":227.6759,"MEAN_ANOMALY":132.4159,"EPHEMERIS_TYPE":0,"NORAD_CAT_ID":48957,"ELEMENT_SET_NO":999,"REV_AT_EPOCH":28120,"BSTAR":0.00032419,"MEAN_MOTION_DOT":0.00041263,"MEAN_MOTION_DDOT":0},{"OBJECT_NAME":"HAWK-5C","OBJECT_ID":"2022-057Y","EPOCH":"2026-07-08T09:19:41.551104","CLASSIFICATION_TYPE":"U","MEAN_MOTION":15.52151684,"ECCENTRICITY":0.0003474,"INCLINATION":97.6616,"RA_OF_ASC_NODE":350.4379,"ARG_OF_PERICENTER":12.0616,"MEAN_ANOMALY":348.0718,"EPHEMERIS_TYPE":0,"NORAD_CAT_ID":52754,"ELEMENT_SET_NO":999,"REV_AT_EPOCH":22963,"BSTAR":0.00020705,"MEAN_MOTION_DOT":0.00012425,"MEAN_MOTION_DDOT":0},{"OBJECT_NAME":"HAWK-5B","OBJECT_ID":"2022-057AA","EPOCH":"2026-07-08T09:19:24.830976","CLASSIFICATION_TYPE":"U","MEAN_MOTION":15.52155109,"ECCENTRICITY":0.0004091,"INCLINATION":97.663,"RA_OF_ASC_NODE":348.7895,"ARG_OF_PERICENTER":359.5569,"MEAN_ANOMALY":0.5678,"EPHEMERIS_TYPE":0,"NORAD_CAT_ID":52756,"ELEMENT_SET_NO":999,"REV_AT_EPOCH":22963,"BSTAR":0.00019483,"MEAN_MOTION_DOT":0.00011686,"MEAN_MOTION_DDOT":0},{"OBJECT_NAME":"HAWK-5A","OBJECT_ID":"2022-057AB","EPOCH":"2026-07-08T09:19:08.020128","CLASSIFICATION_TYPE":"U","MEAN_MOTION":15.52155055,"ECCENTRICITY":0.0003995,"INCLINATION":97.6626,"RA_OF_ASC_NODE":349.6203,"ARG_OF_PERICENTER":4.718,"MEAN_ANOMALY":355.4108,"EPHEMERIS_TYPE":0,"NORAD_CAT_ID":52757,"ELEMENT_SET_NO":999,"REV_AT_EPOCH":22963,"BSTAR":0.00019663,"MEAN_MOTION_DOT":0.00011795,"MEAN_MOTION_DDOT":0},{"OBJECT_NAME":"HAWK-6B","OBJECT_ID":"2023-011A","EPOCH":"2026-07-08T07:08:09.952224","CLASSIFICATION_TYPE":"U","MEAN_MOTION":15.23113138,"ECCENTRICITY":0.0003151,"INCLINATION":40.497,"RA_OF_ASC_NODE":228.9275,"ARG_OF_PERICENTER":202.6849,"MEAN_ANOMALY":157.3821,"EPHEMERIS_TYPE":0,"NORAD_CAT_ID":55324,"ELEMENT_SET_NO":999,"REV_AT_EPOCH":19106,"BSTAR":0.00010299,"MEAN_MOTION_DOT":0.00002286,"MEAN_MOTION_DDOT":0},{"OBJECT_NAME":"HAWK-6C","OBJECT_ID":"2023-011C","EPOCH":"2026-07-08T11:50:31.485408","CLASSIFICATION_TYPE":"U","MEAN_MOTION":15.23115956,"ECCENTRICITY":0.0003589,"INCLINATION":40.4959,"RA_OF_ASC_NODE":224.619,"ARG_OF_PERICENTER":191.9345,"MEAN_ANOMALY":168.138,"EPHEMERIS_TYPE":0,"NORAD_CAT_ID":55326,"ELEMENT_SET_NO":999,"REV_AT_EPOCH":19110,"BSTAR":0.00012668,"MEAN_MOTION_DOT":0.00002857,"MEAN_MOTION_DDOT":0},{"OBJECT_NAME":"HAWK-6A","OBJECT_ID":"2023-011D","EPOCH":"2026-07-08T11:50:34.331424","CLASSIFICATION_TYPE":"U","MEAN_MOTION":15.23116716,"ECCENTRICITY":0.0003129,"INCLINATION":40.4968,"RA_OF_ASC_NODE":226.2458,"ARG_OF_PERICENTER":189.8545,"MEAN_ANOMALY":170.2204,"EPHEMERIS_TYPE":0,"NORAD_CAT_ID":55327,"ELEMENT_SET_NO":999,"REV_AT_EPOCH":19110,"BSTAR":0.00012252,"MEAN_MOTION_DOT":0.00002757,"MEAN_MOTION_DDOT":0},{"OBJECT_NAME":"HAWK-7A","OBJECT_ID":"2023-054P","EPOCH":"2026-07-08T12:46:18.146208","CLASSIFICATION_TYPE":"U","MEAN_MOTION":15.27586372,"ECCENTRICITY":0.0002181,"INCLINATION":97.2675,"RA_OF_ASC_NODE":76.3268,"ARG_OF_PERICENTER":2.3234,"MEAN_ANOMALY":357.8015,"EPHEMERIS_TYPE":0,"NORAD_CAT_ID":56191,"ELEMENT_SET_NO":999,"REV_AT_EPOCH":18028,"BSTAR":0.00014341,"MEAN_MOTION_DOT":0.00003796,"MEAN_MOTION_DDOT":0}]}
