HAWK-A                  
1 43765U 18099H   26189.41405873  .00004733  00000+0  19008-3 0  9997
2 43765  97.3903 241.3749 0034008 208.0622 151.8784 15.24906540416330
HAWK-B                  
1 43794U 18099AN  26189.39532481  .00003403  00000+0  14566-3 0  9999
2 43794  97.3949 240.7267 0030770 226.5256 133.3422 15.23063130416264
HAWK-C                  
1 43799U 18099AT  26189.40773149  .00005004  00000+0  17951-3 0  9994
2 43799  97.3880 242.3858 0039651 207.9866 151.9242 15.28418083417155
HAWK-2C                 
1 47502U 21006CT  26189.08082485  .00004040  00000+0  12147-3 0  9993
2 47502  97.2270 232.9754 0008506 121.2853 238.9225 15.34927271302704
HAWK-2A                 
1 47505U 21006CW  26189.08311852  .00004034  00000+0  12126-3 0  9999
2 47505  97.2311 233.6677 0007979 124.2191 235.9810 15.34941410302704
HAWK-2B                 
1 47508U 21006CZ  26188.68611363  .00005110  00000+0  15236-3 0  9998
2 47508  97.2181 231.5774 0008544 124.0470 236.1586 15.35062896302643
HAWK-3B                 
1 48931U 21059BE  26189.54222877  .00038704  00000+0  30419-3 0  9996
2 48931  97.6652  28.2983 0003906 224.4609 135.6340 15.71414468281205
HAWK-3C                 
1 48948U 21059BX  26189.54192624  .00038991  00000+0  30651-3 0  9996
2 48948  97.6771  34.0207 0004226 223.2923 136.8007 15.71407356281202
HAWK-3A                 
1 48957U 21059CG  26189.54181301  .00041263  00000+0  32419-3 0  9996
2 48957  97.6713  31.2077 0004069 227.6759 132.4159 15.71409877281202
HAWK-5C                 
1 52754U 22057Y   26189.38867536  .00012425  00000+0  20705-3 0  9991
2 52754  97.6616 350.4379 0003474  12.0616 348.0718 15.52151684229636
HAWK-5B                 
1 52756U 22057AA  26189.38848184  .00011686  00000+0  19483-3 0  9990
2 52756  97.6630 348.7895 0004091 359.5569   0.5678 15.52155109229630
HAWK-5A                 
1 52757U 22057AB  26189.38828727  .00011795  00000+0  19663-3 0  9993
2 52757  97.6626 349.6203 0003995   4.7180 355.4108 15.52155055229639
HAWK-6B                 
1 55324U 23011A   26189.29733741  .00002286  00000+0  10299-3 0  9999
2 55324  40.4970 228.9275 0003151 202.6849 157.3821 15.23113138191063
HAWK-6C                 
1 55326U 23011C   26189.49341997  .00002857  00000+0  12668-3 0  9997
2 55326  40.4959 224.6190 0003589 191.9345 168.1380 15.23115956191102
HAWK-6A                 
1 55327U 23011D   26189.49345291  .00002757  00000+0  12252-3 0  9997
2 55327  40.4968 226.2458 0003129 189.8545 170.2204 15.23116716191100
HAWK-7A                 
1 56191U 23054P   26189.53215447  .00003796  00000+0  14341-3 0  9993
2 56191  97.2675  76.3268 0002181   2.3234 357.8015 15.27586372180282
